start=new Date('2022-09-05T00:00:00.000Z').valueOf();
sats=[{"NORAD_CAT_ID":"46146","DECAY_DATE":null,"CENTER_NAME":"EARTH","TLE_LINE1":"1 46146U 20057AF  22247.50211310  .00002265  00000-0  17087-3 0  9996","OBJECT_TYPE":"PAYLOAD","OBJECT_NAME":"STARLINK-1608","FILE":"3557975","GP_ID":"211714392","COUNTRY_CODE":"US","APOAPSIS":"548.137","OBJECT_ID":"2020-057AF","MEAN_ELEMENT_THEORY":"SGP4","PERIAPSIS":"546.243","CLASSIFICATION_TYPE":"U","SEMIMAJOR_AXIS":"6925.325","REF_FRAME":"TEME","RCS_SIZE":"LARGE","MEAN_MOTION_DDOT":"0.0000000000000","BSTAR":"0.00017087000000","TLE_LINE2":"2 46146  53.0571 312.5893 0001367  73.0081 287.1057 15.06407664112813","REV_AT_EPOCH":"11281","EPHEMERIS_TYPE":"0","MEAN_MOTION_DOT":"0.00002265","ELEMENT_SET_NO":"999","MEAN_MOTION":"15.06407664","ARG_OF_PERICENTER":"73.0081","MEAN_ANOMALY":"287.1057","TIME_SYSTEM":"UTC","RA_OF_ASC_NODE":"312.5893","ECCENTRICITY":"0.00013670","EPOCH":"2022-09-04T12:03:02.571840","INCLINATION":"53.0571","PERIOD":"95.592","SITE":"AFETR","LAUNCH_DATE":"2020-08-18"},{"MEAN_MOTION":"15.06408216","ELEMENT_SET_NO":"999","MEAN_MOTION_DOT":"0.00003166","REV_AT_EPOCH":"11407","TLE_LINE2":"2 46147  53.0548 312.3770 0001493  60.7214 299.3924 15.06408216114073","BSTAR":"0.00023131000000","MEAN_MOTION_DDOT":"0.0000000000000","EPHEMERIS_TYPE":"0","RCS_SIZE":"LARGE","PERIAPSIS":"546.154","CLASSIFICATION_TYPE":"U","MEAN_ELEMENT_THEORY":"SGP4","REF_FRAME":"TEME","SEMIMAJOR_AXIS":"6925.323","APOAPSIS":"548.222","COUNTRY_CODE":"US","OBJECT_ID":"2020-057AG","GP_ID":"211714641","FILE":"3557975","TLE_LINE1":"1 46147U 20057AG  22247.55003075  .00003166  00000-0  23131-3 0  9997","OBJECT_TYPE":"PAYLOAD","CENTER_NAME":"EARTH","OBJECT_NAME":"STARLINK-1611","NORAD_CAT_ID":"46147","DECAY_DATE":null,"LAUNCH_DATE":"2020-08-18","PERIOD":"95.592","SITE":"AFETR","INCLINATION":"53.0548","ECCENTRICITY":"0.00014930","EPOCH":"2022-09-04T13:12:02.656800","RA_OF_ASC_NODE":"312.3770","TIME_SYSTEM":"UTC","MEAN_ANOMALY":"299.3924","ARG_OF_PERICENTER":"60.7214"},{"ECCENTRICITY":"0.00011880","EPOCH":"2022-09-04T13:20:00.033216","INCLINATION":"53.0545","PERIOD":"95.590","SITE":"AFETR","LAUNCH_DATE":"2020-08-18","ARG_OF_PERICENTER":"91.7728","MEAN_ANOMALY":"268.3397","TIME_SYSTEM":"UTC","RA_OF_ASC_NODE":"292.3510","MEAN_ELEMENT_THEORY":"SGP4","CLASSIFICATION_TYPE":"U","PERIAPSIS":"546.306","SEMIMAJOR_AXIS":"6925.264","REF_FRAME":"TEME","RCS_SIZE":"LARGE","MEAN_MOTION_DDOT":"0.0000000000000","BSTAR":"-0.00013486000000","TLE_LINE2":"2 46148  53.0545 292.3510 0001188  91.7728 268.3397 15.06427710113096","REV_AT_EPOCH":"11309","EPHEMERIS_TYPE":"0","MEAN_MOTION":"15.06427710","ELEMENT_SET_NO":"999","MEAN_MOTION_DOT":"-0.00002291","NORAD_CAT_ID":"46148","DECAY_DATE":null,"OBJECT_NAME":"STARLINK-1616","TLE_LINE1":"1 46148U 20057AH  22247.55555594 -.00002291  00000-0 -13486-3 0  9998","OBJECT_TYPE":"PAYLOAD","CENTER_NAME":"EARTH","FILE":"3558394","GP_ID":"211748209","COUNTRY_CODE":"US","APOAPSIS":"547.951","OBJECT_ID":"2020-057AH"},{"TLE_LINE1":"1 46149U 20057AJ  22247.50301845  .00001387  00000-0  11196-3 0  9991","CENTER_NAME":"EARTH","OBJECT_TYPE":"PAYLOAD","OBJECT_NAME":"STARLINK-1620","DECAY_DATE":null,"NORAD_CAT_ID":"46149","OBJECT_ID":"2020-057AJ","COUNTRY_CODE":"US","APOAPSIS":"548.196","FILE":"3557975","GP_ID":"211715633","RCS_SIZE":"LARGE","SEMIMAJOR_AXIS":"6925.341","REF_FRAME":"TEME","MEAN_ELEMENT_THEORY":"SGP4","CLASSIFICATION_TYPE":"U","PERIAPSIS":"546.215","ELEMENT_SET_NO":"999","MEAN_MOTION":"15.06402559","MEAN_MOTION_DOT":"0.00001387","EPHEMERIS_TYPE":"0","BSTAR":"0.00011196000000","MEAN_MOTION_DDOT":"0.0000000000000","TLE_LINE2":"2 46149  53.0556 292.5775 0001430  82.8585 277.2566 15.06402559114368","REV_AT_EPOCH":"11436","ARG_OF_PERICENTER":"82.8585","RA_OF_ASC_NODE":"292.5775","MEAN_ANOMALY":"277.2566","TIME_SYSTEM":"UTC","ECCENTRICITY":"0.00014300","EPOCH":"2022-09-04T12:04:20.794080","INCLINATION":"53.0556","LAUNCH_DATE":"2020-08-18","SITE":"AFETR","PERIOD":"95.592"},{"MEAN_ANOMALY":"280.5057","TIME_SYSTEM":"UTC","RA_OF_ASC_NODE":"312.6010","ARG_OF_PERICENTER":"79.6098","PERIOD":"95.592","SITE":"AFETR","LAUNCH_DATE":"2020-08-18","EPOCH":"2022-09-04T11:57:44.586144","ECCENTRICITY":"0.00014810","INCLINATION":"53.0557","FILE":"3557975","GP_ID":"211714892","COUNTRY_CODE":"US","APOAPSIS":"548.232","OBJECT_ID":"2020-057AK","NORAD_CAT_ID":"46150","DECAY_DATE":null,"OBJECT_TYPE":"PAYLOAD","TLE_LINE1":"1 46150U 20057AK  22247.49843271  .00001785  00000-0  13870-3 0  9998","OBJECT_NAME":"STARLINK-1629","CENTER_NAME":"EARTH","BSTAR":"0.00013870000000","MEAN_MOTION_DDOT":"0.0000000000000","REV_AT_EPOCH":"11281","TLE_LINE2":"2 46150  53.0557 312.6010 0001481  79.6098 280.5057 15.06402442112817","EPHEMERIS_TYPE":"0","MEAN_MOTION_DOT":"0.00001785","MEAN_MOTION":"15.06402442","ELEMENT_SET_NO":"999","MEAN_ELEMENT_THEORY":"SGP4","CLASSIFICATION_TYPE":"U","PERIAPSIS":"546.180","SEMIMAJOR_AXIS":"6925.341","REF_FRAME":"TEME","RCS_SIZE":"LARGE"},{"GP_ID":"211749948","FILE":"3558394","OBJECT_ID":"2020-057AL","APOAPSIS":"547.998","COUNTRY_CODE":"US","DECAY_DATE":null,"NORAD_CAT_ID":"46151","OBJECT_TYPE":"PAYLOAD","TLE_LINE1":"1 46151U 20057AL  22247.54080718  .00002031  00000-0  15514-3 0  9996","CENTER_NAME":"EARTH","OBJECT_NAME":"STARLINK-1631","EPHEMERIS_TYPE":"0","TLE_LINE2":"2 46151  53.0543 292.4003 0001204  90.8400 269.2727 15.06416258113094","REV_AT_EPOCH":"11309","MEAN_MOTION_DDOT":"0.0000000000000","BSTAR":"0.00015514000000","MEAN_MOTION":"15.06416258","ELEMENT_SET_NO":"999","MEAN_MOTION_DOT":"0.00002031","REF_FRAME":"TEME","SEMIMAJOR_AXIS":"6925.299","PERIAPSIS":"546.330","CLASSIFICATION_TYPE":"U","MEAN_ELEMENT_THEORY":"SGP4","RCS_SIZE":"LARGE","MEAN_ANOMALY":"269.2727","TIME_SYSTEM":"UTC","RA_OF_ASC_NODE":"292.4003","ARG_OF_PERICENTER":"90.8400","SITE":"AFETR","PERIOD":"95.591","LAUNCH_DATE":"2020-08-18","INCLINATION":"53.0543","ECCENTRICITY":"0.00012040","EPOCH":"2022-09-04T12:58:45.740352"},{"OBJECT_ID":"2020-057AM","COUNTRY_CODE":"US","APOAPSIS":"548.021","FILE":"3558394","GP_ID":"211748710","TLE_LINE1":"1 46152U 20057AM  22247.59057575 -.00000957  00000-0 -45332-4 0  9996","OBJECT_NAME":"STARLINK-1634","OBJECT_TYPE":"PAYLOAD","CENTER_NAME":"EARTH","DECAY_DATE":null,"NORAD_CAT_ID":"46152","MEAN_MOTION_DOT":"-0.00000957","MEAN_MOTION":"15.06410743","ELEMENT_SET_NO":"999","EPHEMERIS_TYPE":"0","MEAN_MOTION_DDOT":"0.0000000000000","BSTAR":"-0.00004533200000","REV_AT_EPOCH":"11282","TLE_LINE2":"2 46152  53.0546 312.1978 0001214  86.9331 273.1797 15.06410743112823","RCS_SIZE":"LARGE","SEMIMAJOR_AXIS":"6925.316","REF_FRAME":"TEME","MEAN_ELEMENT_THEORY":"SGP4","PERIAPSIS":"546.340","CLASSIFICATION_TYPE":"U","RA_OF_ASC_NODE":"312.1978","TIME_SYSTEM":"UTC","MEAN_ANOMALY":"273.1797","ARG_OF_PERICENTER":"86.9331","LAUNCH_DATE":"2020-08-18","SITE":"AFETR","PERIOD":"95.591","ECCENTRICITY":"0.00012140","EPOCH":"2022-09-04T14:10:25.744800","INCLINATION":"53.0546"},{"ARG_OF_PERICENTER":"86.3490","TIME_SYSTEM":"UTC","MEAN_ANOMALY":"273.7664","RA_OF_ASC_NODE":"292.3294","EPOCH":"2022-09-04T13:25:19.271712","ECCENTRICITY":"0.00014450","INCLINATION":"53.0532","PERIOD":"95.592","SITE":"AFETR","LAUNCH_DATE":"2020-08-18","NORAD_CAT_ID":"46153","DECAY_DATE":null,"CENTER_NAME":"EARTH","TLE_LINE1":"1 46153U 20057AN  22247.55925083  .00003006  00000-0  22059-3 0  9997","OBJECT_TYPE":"PAYLOAD","OBJECT_NAME":"STARLINK-1636","FILE":"3558394","GP_ID":"211748958","COUNTRY_CODE":"US","APOAPSIS":"548.191","OBJECT_ID":"2020-057AN","MEAN_ELEMENT_THEORY":"SGP4","PERIAPSIS":"546.189","CLASSIFICATION_TYPE":"U","SEMIMAJOR_AXIS":"6925.325","REF_FRAME":"TEME","RCS_SIZE":"LARGE","MEAN_MOTION_DDOT":"0.0000000000000","BSTAR":"0.00022059000000","REV_AT_EPOCH":"11309","TLE_LINE2":"2 46153  53.0532 292.3294 0001445  86.3490 273.7664 15.06407745113092","EPHEMERIS_TYPE":"0","MEAN_MOTION_DOT":"0.00003006","MEAN_MOTION":"15.06407745","ELEMENT_SET_NO":"999"},{"ARG_OF_PERICENTER":"77.9410","TIME_SYSTEM":"UTC","MEAN_ANOMALY":"282.1751","RA_OF_ASC_NODE":"302.8820","INCLINATION":"53.0537","ECCENTRICITY":"0.00015400","EPOCH":"2022-09-04T10:28:50.645856","PERIOD":"95.592","SITE":"AFETR","LAUNCH_DATE":"2020-08-18","NORAD_CAT_ID":"46154","DECAY_DATE":null,"CENTER_NAME":"EARTH","TLE_LINE1":"1 46154U 20057AP  22247.43669729  .00002475  00000-0  18500-3 0  9992","OBJECT_TYPE":"PAYLOAD","OBJECT_NAME":"STARLINK-1642","GP_ID":"211714393","FILE":"3557975","APOAPSIS":"548.276","COUNTRY_CODE":"US","OBJECT_ID":"2020-057AP","CLASSIFICATION_TYPE":"U","PERIAPSIS":"546.143","MEAN_ELEMENT_THEORY":"SGP4","REF_FRAME":"TEME","SEMIMAJOR_AXIS":"6925.345","RCS_SIZE":"LARGE","REV_AT_EPOCH":"11294","TLE_LINE2":"2 46154  53.0537 302.8820 0001540  77.9410 282.1751 15.06401175112949","BSTAR":"0.00018500000000","MEAN_MOTION_DDOT":"0.0000000000000","EPHEMERIS_TYPE":"0","MEAN_MOTION":"15.06401175","ELEMENT_SET_NO":"999","MEAN_MOTION_DOT":"0.00002475"},{"ARG_OF_PERICENTER":"72.0734","TIME_SYSTEM":"UTC","MEAN_ANOMALY":"288.0390","RA_OF_ASC_NODE":"272.7731","INCLINATION":"53.0539","ECCENTRICITY":"0.00012420","EPOCH":"2022-09-04T11:04:39.374112","PERIOD":"95.591","SITE":"AFETR","LAUNCH_DATE":"2020-08-18","NORAD_CAT_ID":"46155","DECAY_DATE":null,"TLE_LINE1":"1 46155U 20057AQ  22247.46156683  .00002688  00000-0  19921-3 0  9990","OBJECT_TYPE":"PAYLOAD","OBJECT_NAME":"STARLINK-1667","CENTER_NAME":"EARTH","GP_ID":"211721918","FILE":"3558075","APOAPSIS":"548.042","COUNTRY_CODE":"US","OBJECT_ID":"2020-057AQ","PERIAPSIS":"546.322","CLASSIFICATION_TYPE":"U","MEAN_ELEMENT_THEORY":"SGP4","REF_FRAME":"TEME","SEMIMAJOR_AXIS":"6925.317","RCS_SIZE":"LARGE","TLE_LINE2":"2 46155  53.0539 272.7731 0001242  72.0734 288.0390 15.06410350114022","REV_AT_EPOCH":"11402","BSTAR":"0.00019921000000","MEAN_MOTION_DDOT":"0.0000000000000","EPHEMERIS_TYPE":"0","ELEMENT_SET_NO":"999","MEAN_MOTION_DOT":"0.00002688","MEAN_MOTION":"15.06410350"}];
